     2.100          NAVIGATION                              RINEX VERSION / TYPE
fic2rin                                 04/28/2017 00:21:27 PGM / RUN BY / DATE
                                                            END OF HEADER
15 17  4 27  7 59 44.0 -.348737463355D-03 -.795807864051D-12  .000000000000D+00
     .300000000000D+01  .265937500000D+02  .508199739988D-08  .516568065431D+00
     .170245766640D-05  .910851138178D-02  .128075480461D-04  .515378920746D+04
     .374384000000D+06 -.353902578354D-07  .126635731938D+00  .169500708580D-06
     .929790111799D+00  .113843750000D+03  .581317357973D+00 -.829855995405D-08
    -.447518640948D-09  .100000000000D+01  .194600000000D+04  .000000000000D+00
     .240000000000D+01  .000000000000D+00 -.107102096081D-07  .300000000000D+01
     .373986000000D+06  .400000000000D+01
 7 17  4 27  9 59 44.0  .357863958925D-03 -.420641299570D-11  .000000000000D+00
     .220000000000D+02  .112906250000D+03  .480662878681D-08 -.302291829885D+00
     .578537583351D-05  .103809774155D-01  .301375985146D-05  .515374602890D+04
     .381584000000D+06  .117346644402D-06  .126581848569D+01  .949949026108D-07
     .962500804982D+00  .320437500000D+03 -.260769639666D+01 -.869143346166D-08
     .243581574722D-09  .100000000000D+01  .194600000000D+04  .000000000000D+00
     .240000000000D+01  .000000000000D+00 -.111758708954D-07  .220000000000D+02
     .374406000000D+06  .400000000000D+01
15 17  4 27  9 59 44.0 -.348743051291D-03 -.795807864051D-12  .000000000000D+00
     .400000000000D+01  .238437500000D+02  .502163774280D-08  .156635525568D+01
     .153109431267D-05  .911023735534D-02  .143013894558D-04  .515379570770D+04
     .381584000000D+06 -.158324837685D-06  .126576175080D+00  .111758708954D-06
     .929786685645D+00  .895312500000D+02  .581642251597D+00 -.826177270742D-08
    -.467876631797D-09  .100000000000D+01  .194600000000D+04  .000000000000D+00
     .240000000000D+01  .000000000000D+00 -.107102096081D-07  .400000000000D+01
     .374406000000D+06  .400000000000D+01
23 17  4 27  9 59 44.0 -.210650730878D-03 -.795807864051D-12  .000000000000D+00
     .200000000000D+01  .630625000000D+02  .475198365348D-08  .113248201402D+01
     .356137752533D-05  .115889323642D-01  .132620334625D-04  .515376759911D+04
     .381584000000D+06 -.521540641785D-07  .189489326957D+00  .141561031342D-06
     .945040415424D+00  .119625000000D+03 -.247639328018D+01 -.817248327387D-08
    -.399659504565D-09  .100000000000D+01  .194600000000D+04  .000000000000D+00
     .240000000000D+01  .000000000000D+00 -.204890966415D-07  .200000000000D+01
     .374406000000D+06  .400000000000D+01
 1 17  4 27 10  0  0.0  .538830645382D-04  .568434188608D-12  .000000000000D+00
     .190000000000D+02  .511875000000D+02  .481948646524D-08  .317576223890D+00
     .267103314400D-05  .653371517546D-02  .668317079544D-05  .515367966461D+04
     .381600000000D+06  .577419996262D-07 -.189156720243D+01  .128522515297D-06
     .966820737702D+00  .256562500000D+03  .536821392354D+00 -.828427364468D-08
     .647884129832D-09  .100000000000D+01  .194600000000D+04  .000000000000D+00
     .240000000000D+01  .000000000000D+00  .558793544769D-08  .190000000000D+02
     .374406000000D+06  .400000000000D+01
 2 17  4 27 10  0  0.0  .431234948337D-03 -.761701812735D-11  .000000000000D+00
     .330000000000D+02  .468125000000D+02  .526271921338D-08  .647472772263D+00
     .236742198467D-05  .167730932590D-01  .784546136856D-05  .515376905823D+04
     .381600000000D+06 -.188127160072D-06 -.194432046871D+01  .540167093277D-07
     .945769953652D+00  .220750000000D+03 -.198573646951D+01 -.867464704815D-08
     .620025826564D-09  .100000000000D+01  .194600000000D+04  .000000000000D+00
     .240000000000D+01  .000000000000D+00 -.204890966415D-07  .330000000000D+02
     .374406000000D+06  .400000000000D+01
 3 17  4 27 10  0  0.0 -.102910678834D-03  .147792889038D-11  .000000000000D+00
     .930000000000D+02 -.492812500000D+02  .508985487003D-08 -.330420344728D+00
    -.253506004810D-05  .590456184000D-03  .664219260216D-05  .515374446487D+04
     .381600000000D+06 -.130385160446D-07 -.848800809126D+00  .149011611938D-07
     .959621864125D+00  .253375000000D+03  .748788518505D-01 -.828748806429D-08
    -.500377985609D-09  .100000000000D+01  .194600000000D+04  .000000000000D+00
     .340000000000D+01  .000000000000D+00  .232830643654D-08  .930000000000D+02
     .374406000000D+06  .400000000000D+01
 5 17  4 27 10  0  0.0 -.486997887492D-04  .181898940355D-11  .000000000000D+00
     .160000000000D+02 -.479062500000D+02  .544951270836D-08 -.301875973770D+01
    -.253878533840D-05  .492419395596D-02  .611133873463D-05  .515372194481D+04
     .381600000000D+06 -.316649675369D-07 -.865227430550D+00 -.782310962677D-07
     .946575606045D+00  .256093750000D+03  .537205942315D+00 -.840463580110D-08
    -.488591780380D-09  .100000000000D+01  .194600000000D+04  .000000000000D+00
     .240000000000D+01  .000000000000D+00 -.107102096081D-07  .160000000000D+02
     .374406000000D+06  .400000000000D+01
 6 17  4 27 10  0  0.0  .343357678503D-03  .500222085975D-11  .000000000000D+00
     .950000000000D+02  .475000000000D+02  .472876840076D-08  .447652388050D+00
     .248663127422D-05  .810944125988D-03  .708363950253D-05  .515365236473D+04
     .381600000000D+06  .745058059692D-08 -.189995112450D+01  .186264514923D-08
     .966603990296D+00  .240312500000D+03 -.115394836190D+01 -.817176895841D-08
     .741816613925D-09  .100000000000D+01  .194600000000D+04  .000000000000D+00
     .240000000000D+01  .000000000000D+00  .465661287308D-08  .950000000000D+02
     .374406000000D+06  .400000000000D+01
 8 17  4 27 10  0  0.0 -.577322207391D-04 -.136424205266D-11  .000000000000D+00
     .390000000000D+02 -.587187500000D+02  .398445168269D-08  .300620353816D+01
    -.309944152832D-05  .259733258281D-02  .133682042360D-04  .515362885284D+04
     .381600000000D+06  .223517417908D-07 -.295404212465D+01 -.558793544769D-08
     .966845582439D+00  .123875000000D+03 -.713590615891D+00 -.768853454404D-08
     .169292766009D-09  .100000000000D+01  .194600000000D+04  .000000000000D+00
     .240000000000D+01  .000000000000D+00  .512227416039D-08  .390000000000D+02
     .374406000000D+06  .400000000000D+01
 9 17  4 27 10  0  0.0  .351397786289D-03  .784439180279D-11  .000000000000D+00
     .125000000000D+03  .649687500000D+02  .440732643998D-08  .249330669052D+01
     .345893204212D-05  .813214806840D-03  .135935842991D-04  .515365697098D+04
     .381600000000D+06  .670552253723D-07  .187384812507D+00 -.782310962677D-07
     .954168253281D+00  .110750000000D+03  .190837893265D+01 -.791175812791D-08
    -.312155859687D-09  .100000000000D+01  .194600000000D+04  .000000000000D+00
     .240000000000D+01  .000000000000D+00  .139698386192D-08  .125000000000D+03
     .374406000000D+06  .400000000000D+01
10 17  4 27 10  0  0.0 -.674123875797D-04  .852651282912D-11  .000000000000D+00
     .200000000000D+02 -.533750000000D+02  .506342519770D-08 -.188108433231D+01
    -.287964940071D-05  .246883113869D-02  .611692667007D-05  .515366699791D+04
     .381600000000D+06  .931322574615D-07 -.852539286038D+00 -.335276126862D-07
     .959790226978D+00  .260875000000D+03 -.278335936447D+01 -.836106255753D-08
    -.431446542909D-09  .100000000000D+01  .194600000000D+04  .000000000000D+00
     .240000000000D+01  .000000000000D+00  .186264514923D-08  .200000000000D+02
     .374406000000D+06  .400000000000D+01
11 17  4 27 10  0  0.0 -.684130471200D-03 -.261479726760D-11  .000000000000D+00
     .340000000000D+02  .501875000000D+02  .601989360988D-08 -.296558166781D+00
     .250898301601D-05  .166842326289D-01  .102743506432D-04  .515370476151D+04
     .381600000000D+06 -.307336449623D-06 -.229196468864D+01  .117346644402D-06
     .900471663779D+00  .155062500000D+03  .163574802283D+01 -.900823237189D-08
     .811819529828D-09  .100000000000D+01  .194600000000D+04  .000000000000D+00
     .240000000000D+01  .000000000000D+00 -.121071934700D-07  .340000000000D+02
     .374406000000D+06  .400000000000D+01
12 17  4 27 10  0  0.0  .384715851396D-03 -.682121026330D-12  .000000000000D+00
     .100000000000D+02 -.107875000000D+03  .415945897245D-08 -.891601188323D+00
    -.560656189919D-05  .668430142105D-02  .343844294548D-05  .515354084015D+04
     .381600000000D+06  .132247805595D-06  .234999150395D+01  .178813934326D-06
     .989273060177D+00  .327281250000D+03  .842743810405D+00 -.826820154664D-08
    -.481805783431D-09  .100000000000D+01  .194600000000D+04  .000000000000D+00
     .240000000000D+01  .000000000000D+00 -.125728547573D-07  .100000000000D+02
     .374406000000D+06  .400000000000D+01
13 17  4 27 10  0  0.0 -.796169042587D-04 -.147792889038D-11  .000000000000D+00
     .630000000000D+02  .791562500000D+02  .410124226177D-08  .732441911386D+00
     .409781932831D-05  .385279965121D-02  .140406191349D-04  .515369657898D+04
     .381600000000D+06 -.726431608200D-07  .313076605332D+00 -.447034835815D-07
     .970244492658D+00  .113812500000D+03  .184504237571D+01 -.779639617977D-08
    -.160720980388D-09  .100000000000D+01  .194600000000D+04  .000000000000D+00
     .240000000000D+01  .000000000000D+00 -.111758708954D-07  .630000000000D+02
     .374406000000D+06  .400000000000D+01
14 17  4 27 10  0  0.0 -.685225240886D-04 -.147792889038D-11  .000000000000D+00
     .470000000000D+02  .637187500000D+02  .414981571362D-08  .211062855085D+01
     .318698585033D-05  .897701783106D-02  .132340937853D-04  .515365519905D+04
     .381600000000D+06 -.186264514923D-08  .273848616494D+00 -.199303030968D-06
     .962768391717D+00  .124406250000D+03 -.196263029287D+01 -.770174938020D-08
    -.190722230061D-09  .100000000000D+01  .194600000000D+04  .000000000000D+00
     .240000000000D+01  .000000000000D+00 -.931322574615D-08  .470000000000D+02
     .374406000000D+06  .400000000000D+01
